NORAD_CAT_ID,OBJECT_NAME,OBJECT_TYPE,EPOCH,MEAN_MOTION,ECCENTRICITY,INCLINATION,RA_OF_ASC_NODE,ARG_OF_PERICENTER,MEAN_ANOMALY,BSTAR,MEAN_MOTION_DOT,MEAN_MOTION_DDOT,TLE_LINE0,TLE_LINE1,TLE_LINE2,SEMIMAJOR_AXIS,PERIOD,APOGEE,PERIGEE,DECAYED
53926.0,STARLINK-5014,PAYLOAD,2023-12-02 12:38:52,15.08863804,0.000174,53.2181,66.6748,67.7842,292.3335,0.00047304,7.253e-05,0.0,0 STARLINK-5014,1 53926U 22119AS  23336.52699141  .00007253  00000-0  47304-3 0  9992,2 53926  53.2181  66.6748 0001740  67.7842 292.3335 15.08863804 66888,6917.808,95.436,540.876,538.469,0.0
53926.0,STARLINK-5014,PAYLOAD,2023-12-03 10:54:15,15.08837356,0.0001661,53.2175,62.5043,125.1739,234.9409,-0.00016193,-2.864e-05,0.0,0 STARLINK-5014,1 53926U 22119AS  23337.45435147 -.00002864  00000-0 -16193-3 0  9996,2 53926  53.2175  62.5043 0001661 125.1739 234.9409 15.08837356 66595,6917.888,95.438,540.903,538.604,0.0
53926.0,STARLINK-5014,PAYLOAD,2023-12-03 12:29:39,15.08834151,0.0001264,53.2183,62.2113,114.426,245.6864,-0.00018843,-3.285e-05,0.0,0 STARLINK-5014,1 53926U 22119AS  23337.52059349 -.00003285  00000-0 -18843-3 0  9992,2 53926  53.2183  62.2113 0001264 114.4260 245.6864 15.08834151 67032,6917.898,95.438,540.638,538.889,0.0
53926.0,STARLINK-5014,PAYLOAD,2023-12-03 15:40:26,15.08828172,0.0001335,53.2184,61.6138,96.7776,263.3368,-0.00024239,-4.142e-05,0.0,0 STARLINK-5014,1 53926U 22119AS  23337.65307930 -.00004142  00000-0 -24239-3 0  9997,2 53926  53.2184  61.6138 0001335  96.7776 263.3368 15.08828172 66622,6917.917,95.438,540.705,538.858,0.0
53926.0,STARLINK-5014,PAYLOAD,2023-12-04 10:45:03,15.08861497,0.0001258,53.2182,58.0483,70.6462,289.4666,-0.00034958,-5.85e-05,0.0,0 STARLINK-5014,1 53926U 22119AS  23338.44795921 -.00005850  00000-0 -34958-3 0  9992,2 53926  53.2182  58.0483 0001258  70.6462 289.4666 15.08861497 66740,6917.815,95.436,540.55,538.809,0.0
53926.0,STARLINK-5014,PAYLOAD,2023-12-04 15:31:14,15.0878598,0.0001608,53.2187,57.1544,101.0684,259.0489,0.00088928,0.00013872,0.0,0 STARLINK-5014,1 53926U 22119AS  23338.64669123  .00013872  00000-0  88928-3 0  9995,2 53926  53.2187  57.1544 0001608 101.0684 259.0489 15.08785980 66778,6918.046,95.441,541.023,538.798,0.0
53926.0,STARLINK-5014,PAYLOAD,2023-12-05 10:35:51,15.0883302,0.0001356,53.2189,53.5845,83.39,276.7246,0.00019003,2.737e-05,0.0,0 STARLINK-5014,1 53926U 22119AS  23339.44156471  .00002737  00000-0  19003-3 0  9997,2 53926  53.2189  53.5845 0001356  83.3900 276.7246 15.08833020 66896,6917.902,95.438,540.705,538.829,0.0
53926.0,STARLINK-5014,PAYLOAD,2023-12-06 10:26:38,15.08839088,0.000139,53.2184,49.1274,75.7933,284.3213,1.802e-05,-1e-08,0.0,0 STARLINK-5014,1 53926U 22119AS  23340.43516995 -.00000001  00000-0  18020-4 0  9991,2 53926  53.2184  49.1274 0001390  75.7933 284.3213 15.08839088 67471,6917.883,95.438,540.71,538.787,0.0
53926.0,STARLINK-5014,PAYLOAD,2023-12-07 11:52:49,15.0883685,0.0001471,53.2185,44.3704,73.0744,287.0409,1.4328e-05,-6e-07,0.0,0 STARLINK-5014,1 53926U 22119AS  23341.49501427 -.00000060  00000-0  14328-4 0  9994,2 53926  53.2185  44.3704 0001471  73.0744 287.0409 15.08836850 67200,6917.89,95.438,540.773,538.737,0.0
53926.0,STARLINK-5014,PAYLOAD,2023-12-07 13:28:11,15.08841424,0.0001419,53.2183,44.072,87.8346,272.2809,4.1694e-05,3.76e-06,0.0,0 STARLINK-5014,1 53926U 22119AS  23341.56124980  .00000376  00000-0  41694-4 0  9992,2 53926  53.2183  44.0720 0001419  87.8346 272.2809 15.08841424 67647,6917.876,95.437,540.723,538.759,0.0
53926.0,STARLINK-5014,PAYLOAD,2023-12-08 11:43:36,15.08836841,0.0001583,53.2188,39.911,69.2279,290.8883,5.5828e-05,6.01e-06,0.0,0 STARLINK-5014,1 53926U 22119AS  23342.48861523  .00000601  00000-0  55828-4 0  9990,2 53926  53.2188  39.9110 0001583  69.2279 290.8883 15.08836841 67789,6917.89,95.438,540.85,538.66,0.0
53926.0,STARLINK-5014,PAYLOAD,2023-12-09 09:59:01,15.08830845,0.0001714,53.2189,35.7497,66.6271,293.4902,-1.2661e-05,-4.9e-06,0.0,0 STARLINK-5014,1 53926U 22119AS  23343.41598620 -.00000490  00000-0 -12661-4 0  9995,2 53926  53.2189  35.7497 0001714  66.6271 293.4902 15.08830845 67498,6917.908,95.438,540.959,538.588,0.0
53926.0,STARLINK-5014,PAYLOAD,2023-12-11 09:40:32,15.08848737,0.0001394,53.2187,26.8274,110.9785,249.1356,6.975e-06,-1.77e-06,0.0,0 STARLINK-5014,1 53926U 22119AS  23345.40315552 -.00000177  00000-0  69750-5 0  9990,2 53926  53.2187  26.8274 0001394 110.9785 249.1356 15.08848737 67790,6917.854,95.437,540.683,538.754,0.0
53926.0,STARLINK-5014,PAYLOAD,2023-12-12 09:31:20,15.08824399,0.0001761,53.2191,22.3647,106.2859,253.8327,-5.7615e-05,-1.205e-05,0.0,0 STARLINK-5014,1 53926U 22119AS  23346.39677057 -.00001205  00000-0 -57615-4 0  9990,2 53926  53.2191  22.3647 0001761 106.2859 253.8327 15.08824399 67943,6917.928,95.439,541.011,538.575,0.0
53926.0,STARLINK-5014,PAYLOAD,2023-12-13 07:46:45,15.08829671,0.0001644,53.2185,18.2026,99.2029,260.915,-1.0938e-05,-4.62e-06,0.0,0 STARLINK-5014,1 53926U 22119AS  23347.32413417 -.00000462  00000-0 -10938-4 0  9993,2 53926  53.2185  18.2026 0001644  99.2029 260.9150 15.08829671 68088,6917.912,95.438,540.914,538.64,0.0
53926.0,STARLINK-5014,PAYLOAD,2023-12-14 09:12:55,15.08833678,0.000162,53.2184,13.4466,94.0115,266.1062,0.00013112,1.799e-05,0.0,0 STARLINK-5014,1 53926U 22119AS  23348.38397662  .00001799  00000-0  13112-3 0  9991,2 53926  53.2184  13.4466 0001620  94.0115 266.1062 15.08833678 68245,6917.9,95.438,540.885,538.644,0.0
53926.0,STARLINK-5014,PAYLOAD,2023-12-15 09:03:43,15.08835283,0.0001632,53.2186,8.9864,88.9995,271.1184,4.9963e-05,5.07e-06,0.0,0 STARLINK-5014,1 53926U 22119AS  23349.37758311  .00000507  00000-0  49963-4 0  9993,2 53926  53.2186   8.9864 0001632  88.9995 271.1184 15.08835283 68828,6917.895,95.438,540.889,538.631,0.0
53926.0,STARLINK-5014,PAYLOAD,2023-12-16 08:54:30,15.08843017,0.0001837,53.2193,4.5245,78.6889,281.4309,5.3178e-05,5.58e-06,0.0,0 STARLINK-5014,1 53926U 22119AS  23350.37118155  .00000558  00000-0  53178-4 0  9990,2 53926  53.2193   4.5245 0001837  78.6889 281.4309 15.08843017 68542,6917.871,95.437,541.007,538.465,0.0
53926.0,STARLINK-5014,PAYLOAD,2023-12-17 07:09:54,15.0883959,0.0001967,53.2194,0.3609,75.7641,284.3569,8.2325e-05,1.022e-05,0.0,0 STARLINK-5014,1 53926U 22119AS  23351.29854319  .00001022  00000-0  82325-4 0  9994,2 53926  53.2194   0.3609 0001967  75.7641 284.3569 15.08839590 69114,6917.882,95.438,541.107,538.386,0.0
53926.0,STARLINK-5014,PAYLOAD,2023-12-18 03:49:54,15.08848088,0.0001826,53.2187,356.4996,83.7499,276.3701,8.3047e-05,1.034e-05,0.0,0 STARLINK-5014,1 53926U 22119AS  23352.15965686  .00001034  00000-0  83047-4 0  9995,2 53926  53.2187 356.4996 0001826  83.7499 276.3701 15.08848088 68811,6917.856,95.437,540.984,538.457,0.0
53926.0,STARLINK-5014,PAYLOAD,2023-12-18 07:00:40,15.08850817,0.000193,53.2194,355.8986,80.6216,279.4995,0.0001038,1.365e-05,0.0,0 STARLINK-5014,1 53926U 22119AS  23352.29213355  .00001365  00000-0  10380-3 0  9995,2 53926  53.2194 355.8986 0001930  80.6216 279.4995 15.08850817 69262,6917.847,95.437,541.047,538.377,0.0
53926.0,STARLINK-5014,PAYLOAD,2023-12-19 03:40:42,15.08835951,0.0001692,53.2193,352.036,94.6776,265.4409,-3.3092e-05,-8.15e-06,0.0,0 STARLINK-5014,1 53926U 22119AS  23353.15326720 -.00000815  00000-0 -33092-4 0  9999,2 53926  53.2193 352.0360 0001692  94.6776 265.4409 15.08835951 68960,6917.893,95.438,540.928,538.587,0.0
53926.0,STARLINK-5014,PAYLOAD,2023-12-19 05:16:05,15.08836909,0.0001796,53.2193,351.7371,102.9413,257.1779,-2.4677e-05,-6.81e-06,0.0,0 STARLINK-5014,1 53926U 22119AS  23353.21950619 -.00000681  00000-0 -24677-4 0  9996,2 53926  53.2193 351.7371 0001796 102.9413 257.1779 15.08836909 69406,6917.89,95.438,540.997,538.512,0.0
53926.0,STARLINK-5014,PAYLOAD,2023-12-20 06:42:15,15.08841965,0.0001925,53.2194,346.9797,114.1701,245.9493,-5.4158e-05,-1.15e-05,0.0,0 STARLINK-5014,1 53926U 22119AS  23354.27934698 -.00001150  00000-0 -54158-4 0  9991,2 53926  53.2194 346.9797 0001925 114.1701 245.9493 15.08841965 69130,6917.874,95.437,541.071,538.408,0.0
53926.0,STARLINK-5014,PAYLOAD,2023-12-21 04:57:38,15.08843403,0.0001785,53.2192,342.8188,110.4945,249.6239,0.00019205,2.77e-05,0.0,0 STARLINK-5014,1 53926U 22119AS  23355.20670095  .00002770  00000-0  19205-3 0  9993,2 53926  53.2192 342.8188 0001785 110.4945 249.6239 15.08843403 69701,6917.87,95.437,540.97,538.5,0.0
53926.0,STARLINK-5014,PAYLOAD,2023-12-22 03:13:04,15.08831731,0.0001354,53.2186,338.6563,101.9883,258.1261,-3.9777e-05,-9.21e-06,0.0,0 STARLINK-5014,1 53926U 22119AS  23356.13407758 -.00000921  00000-0 -39777-4 0  9995,2 53926  53.2186 338.6563 0001354 101.9883 258.1261 15.08831731 69411,6917.906,95.438,540.707,538.834,0.0
53926.0,STARLINK-5014,PAYLOAD,2023-12-22 04:48:27,15.08833613,0.0001395,53.2182,338.3571,73.1425,286.972,-2.6184e-05,-7.05e-06,0.0,0 STARLINK-5014,1 53926U 22119AS  23356.20031805 -.00000705  00000-0 -26184-4 0  9997,2 53926  53.2182 338.3571 0001395  73.1425 286.9720 15.08833613 69858,6917.9,95.438,540.73,538.8,0.0
53926.0,STARLINK-5014,PAYLOAD,2023-12-22 22:17:41,15.08847339,0.0001327,53.2179,335.0833,81.5887,278.5255,-0.00014369,-2.574e-05,0.0,0 STARLINK-5014,1 53926U 22119AS  23356.92895563 -.00002574  00000-0 -14369-3 0  9992,2 53926  53.2179 335.0833 0001327  81.5887 278.5255 15.08847339 69961,6917.858,95.437,540.641,538.805,0.0
53926.0,STARLINK-5014,PAYLOAD,2023-12-23 03:03:50,15.08853241,0.0001329,53.2182,334.1957,96.9826,263.1318,-2.9676e-05,-7.6e-06,0.0,0 STARLINK-5014,1 53926U 22119AS  23357.12766615 -.00000760  00000-0 -29676-4 0  9993,2 53926  53.2182 334.1957 0001329  96.9826 263.1318 15.08853241 69562,6917.84,95.437,540.624,538.786,0.0
53926.0,STARLINK-5014,PAYLOAD,2023-12-23 07:49:59,15.08857386,0.000163,53.2169,333.3015,117.2946,242.8212,8.596e-05,1.081e-05,0.0,0 STARLINK-5014,1 53926U 22119AS  23357.32637974  .00001081  00000-0  85960-4 0  9993,2 53926  53.2169 333.3015 0001630 117.2946 242.8212 15.08857386 70022,6917.827,95.436,540.82,538.565,0.0
